STARLINK-36641          
1 67589U 26018A   26040.83335647 -.00065449  00000+0 -34303-3 0  9998
2 67589  97.2800 105.1925 0001753  91.2050  58.1688 15.80844906  2866
STARLINK-36376          
1 67590U 26018B   26040.83335647 -.00097029  00000+0 -51022-3 0  9996
2 67590  97.2790 105.1947 0001616  76.4670  78.1042 15.80867904  2916
STARLINK-36391          
1 67591U 26018C   26040.83335647 -.00000095  00000+0  24636-6 0  9997
2 67591  97.2793 105.1979 0001789  85.5051  75.2856 15.80827755  2911
STARLINK-36603          
1 67592U 26018D   26040.83335647  .00003624  00000+0  19647-4 0  9992
2 67592  97.2792 105.1995 0000927  71.6370  93.3981 15.80823422  2874
STARLINK-36634          
1 67593U 26018E   26040.83335647 -.00066462  00000+0 -34818-3 0  9990
2 67593  97.2792 105.2020 0001589  72.3836  99.1819 15.80859200  2861
STARLINK-36638          
1 67594U 26018F   26040.83335647 -.00330342  00000+0 -17736-2 0  9991
2 67594  97.2791 105.2043 0001100  83.8048  93.9959 15.81015378  2865
STARLINK-36628          
1 67595U 26018G   26040.83335647 -.00529183  00000+0 -28845-2 0  9998
2 67595  97.2788 105.2062 0001381  65.3456 117.0576 15.81176142  2862
STARLINK-36629          
1 67596U 26018H   26040.83335647 -.00875579  00000+0 -49018-2 0  9997
2 67596  97.2791 105.2086 0001758  80.3760 107.6893 15.81451480  2864
STARLINK-36384          
1 67597U 26018J   26040.83335647 -.01236174  00000+0 -69509-2 0  9998
2 67597  97.2790 105.2112 0001787  79.9676 114.0968 15.81802230  2921
STARLINK-36358          
1 67598U 26018K   26040.83335647 -.01447754  00000+0 -80527-2 0  9990
2 67598  97.2787 105.2125 0001732  84.0104 114.1841 15.82023121  2910
STARLINK-36582          
1 67599U 26018L   26040.83335647 -.01681335  00000+0 -93948-2 0  9997
2 67599  97.2789 105.2155 0001597  83.3795 121.2483 15.82372751  2976
STARLINK-36640          
1 67600U 26018M   26040.83335647 -.01770551  00000+0 -97508-2 0  9995
2 67600  97.2788 105.2198 0001616  81.1060 134.3722 15.82856731  2873
